STARLINK-1346_new
1 15560C 20025AF  21326.14775725  .00004846  00000-0  32467-3 0  3262
2 15560  53.0539 278.0845 0001881  62.2443  11.7691 15.06396417    18
STARLINK-1346_old
1 25560C 20025AF  21325.09194542 -.00000339  00000-0 -22707-4 0  3258
2 25560  53.0538 282.8241 0001775  62.3813  42.7727 15.06391789    15
